{
  "type": "FeatureCollection",
  "features": [
    {
      "type": "Feature",
      "properties": {
        "norad_id": 34721,
        "name": "COSMOS 2251 DEB",
        "group": "cosmos-2251-debris",
        "lat": -19.555169111954356,
        "lon": 167.52502283519232,
        "alt_km": 883.04390650606,
        "timestamp": "2025-12-03T20:47:58.620745+00:00",
        "meta_object_name": "COSMOS 2251 DEB",
        "meta_object_id": "1993-036YP",
        "meta_epoch": "2025-12-02T07:48:06.027264",
        "meta_mean_motion": 13.96762831,
        "meta_eccentricity": 0.022397,
        "meta_inclination": 73.9234,
        "meta_ra_of_asc_node": 344.3187,
        "meta_arg_of_pericenter": 285.1168,
        "meta_mean_anomaly": 89.0422,
        "meta_ephemeris_type": 0,
        "meta_classification_type": "U",
        "meta_norad_cat_id": 34721,
        "meta_element_set_no": 999,
        "meta_rev_at_epoch": 85004,
        "meta_bstar": 0.0021289,
        "meta_mean_motion_dot": 3.628e-05,
        "meta_mean_motion_ddot": 0,
        "tle_line1": "1 34721U 93036YP  25336.32506976  .00003628  00000+0  21289-2 0  9997",
        "tle_line2": "2 34721  73.9234 344.3187 0223970 285.1168  89.0422 13.96762831850049"
      },
      "geometry": {
        "type": "Point",
        "coordinates": [
          167.52502283519232,
          -19.555169111954356
        ]
      }
    },
    {
      "type": "Feature",
      "properties": {
        "norad_id": 34722,
        "name": "COSMOS 2251 DEB",
        "group": "cosmos-2251-debris",
        "lat": -49.62381952749706,
        "lon": -27.998255977083115,
        "alt_km": 752.6587465290368,
        "timestamp": "2025-12-03T20:47:58.620755+00:00",
        "meta_object_name": "COSMOS 2251 DEB",
        "meta_object_id": "1993-036YQ",
        "meta_epoch": "2025-12-03T11:34:07.843008",
        "meta_mean_motion": 14.11883705,
        "meta_eccentricity": 0.0167495,
        "meta_inclination": 73.8718,
        "meta_ra_of_asc_node": 352.5809,
        "meta_arg_of_pericenter": 279.7285,
        "meta_mean_anomaly": 232.8069,
        "meta_ephemeris_type": 0,
        "meta_classification_type": "U",
        "meta_norad_cat_id": 34722,
        "meta_element_set_no": 999,
        "meta_rev_at_epoch": 86114,
        "meta_bstar": 0.0011688,
        "meta_mean_motion_dot": 2.41e-05,
        "meta_mean_motion_ddot": 0,
        "tle_line1": "1 34722U 93036YQ  25337.48203522  .00002410  00000+0  11688-2 0  9997",
        "tle_line2": "2 34722  73.8718 352.5809 0167495 279.7285 232.8069 14.11883705861146"
      },
      "geometry": {
        "type": "Point",
        "coordinates": [
          -27.998255977083115,
          -49.62381952749706
        ]
      }
    },
    {
      "type": "Feature",
      "properties": {
        "norad_id": 34726,
        "name": "COSMOS 2251 DEB",
        "group": "cosmos-2251-debris",
        "lat": -70.2752629230364,
        "lon": -123.73888645602858,
        "alt_km": 707.8321487322683,
        "timestamp": "2025-12-03T20:47:58.620766+00:00",
        "meta_object_name": "COSMOS 2251 DEB",
        "meta_object_id": "1993-036YU",
        "meta_epoch": "2025-12-03T11:23:49.855776",
        "meta_mean_motion": 14.59424175,
        "meta_eccentricity": 0.0042474,
        "meta_inclination": 74.0293,
        "meta_ra_of_asc_node": 3.9976,
        "meta_arg_of_pericenter": 157.587,
        "meta_mean_anomaly": 202.7164,
        "meta_ephemeris_type": 0,
        "meta_classification_type": "U",
        "meta_norad_cat_id": 34726,
        "meta_element_set_no": 999,
        "meta_rev_at_epoch": 88367,
        "meta_bstar": 0.00059466,
        "meta_mean_motion_dot": 2.824e-05,
        "meta_mean_motion_ddot": 0,
        "tle_line1": "1 34726U 93036YU  25337.47488259  .00002824  00000+0  59466-3 0  9998",
        "tle_line2": "2 34726  74.0293   3.9976 0042474 157.5870 202.7164 14.59424175883673"
      },
      "geometry": {
        "type": "Point",
        "coordinates": [
          -123.73888645602858,
          -70.2752629230364
        ]
      }
    },
    {
      "type": "Feature",
      "properties": {
        "norad_id": 34728,
        "name": "COSMOS 2251 DEB",
        "group": "cosmos-2251-debris",
        "lat": 42.839684492142794,
        "lon": 73.60329514398603,
        "alt_km": 643.1310648851259,
        "timestamp": "2025-12-03T20:47:58.620777+00:00",
        "meta_object_name": "COSMOS 2251 DEB",
        "meta_object_id": "1993-036YW",
        "meta_epoch": "2025-12-03T02:14:02.628672",
        "meta_mean_motion": 14.70683723,
        "meta_eccentricity": 0.0040693,
        "meta_inclination": 74.0187,
        "meta_ra_of_asc_node": 270.5171,
        "meta_arg_of_pericenter": 70.8224,
        "meta_mean_anomaly": 289.7344,
        "meta_ephemeris_type": 0,
        "meta_classification_type": "U",
        "meta_norad_cat_id": 34728,
        "meta_element_set_no": 999,
        "meta_rev_at_epoch": 88658,
        "meta_bstar": 0.0010464414,
        "meta_mean_motion_dot": 6.43e-05,
        "meta_mean_motion_ddot": 0,
        "tle_line1": "1 34728U 93036YW  25337.09308598  .00006430  00000+0  10464-2 0  9996",
        "tle_line2": "2 34728  74.0187 270.5171 0040693  70.8224 289.7344 14.70683723886584"
      },
      "geometry": {
        "type": "Point",
        "coordinates": [
          73.60329514398603,
          42.839684492142794
        ]
      }
    },
    {
      "type": "Feature",
      "properties": {
        "norad_id": 34729,
        "name": "COSMOS 2251 DEB",
        "group": "cosmos-2251-debris",
        "lat": 46.76535401713113,
        "lon": 178.25495481547208,
        "alt_km": 608.9351513810816,
        "timestamp": "2025-12-03T20:47:58.620787+00:00",
        "meta_object_name": "COSMOS 2251 DEB",
        "meta_object_id": "1993-036YX",
        "meta_epoch": "2025-12-03T10:46:25.403232",
        "meta_mean_motion": 14.82363711,
        "meta_eccentricity": 0.0012244,
        "meta_inclination": 74.019,
        "meta_ra_of_asc_node": 16.8279,
        "meta_arg_of_pericenter": 141.7348,
        "meta_mean_anomaly": 280.5603,
        "meta_ephemeris_type": 0,
        "meta_classification_type": "U",
        "meta_norad_cat_id": 34729,
        "meta_element_set_no": 999,
        "meta_rev_at_epoch": 88320,
        "meta_bstar": 0.0023674,
        "meta_mean_motion_dot": 0.00018995,
        "meta_mean_motion_ddot": 0,
        "tle_line1": "1 34729U 93036YX  25337.44890513  .00018995  00000+0  23674-2 0  9995",
        "tle_line2": "2 34729  74.0190  16.8279 0012244 141.7348 280.5603 14.82363711883203"
      },
      "geometry": {
        "type": "Point",
        "coordinates": [
          178.25495481547208,
          46.76535401713113
        ]
      }
    },
    {
      "type": "Feature",
      "properties": {
        "norad_id": 34732,
        "name": "COSMOS 2251 DEB",
        "group": "cosmos-2251-debris",
        "lat": 41.685657577668856,
        "lon": 124.5262787809659,
        "alt_km": 753.3078028289874,
        "timestamp": "2025-12-03T20:47:58.620797+00:00",
        "meta_object_name": "COSMOS 2251 DEB",
        "meta_object_id": "1993-036ZA",
        "meta_epoch": "2025-12-03T09:07:42.087072",
        "meta_mean_motion": 14.47282571,
        "meta_eccentricity": 0.0040498,
        "meta_inclination": 74.0444,
        "meta_ra_of_asc_node": 110.6746,
        "meta_arg_of_pericenter": 263.4113,
        "meta_mean_anomaly": 127.4315,
        "meta_ephemeris_type": 0,
        "meta_classification_type": "U",
        "meta_norad_cat_id": 34732,
        "meta_element_set_no": 999,
        "meta_rev_at_epoch": 88008,
        "meta_bstar": 0.00023794,
        "meta_mean_motion_dot": 8.51e-06,
        "meta_mean_motion_ddot": 0,
        "tle_line1": "1 34732U 93036ZA  25337.38034823  .00000851  00000+0  23794-3 0  9992",
        "tle_line2": "2 34732  74.0444 110.6746 0040498 263.4113 127.4315 14.47282571880082"
      },
      "geometry": {
        "type": "Point",
        "coordinates": [
          124.5262787809659,
          41.685657577668856
        ]
      }
    },
    {
      "type": "Feature",
      "properties": {
        "norad_id": 34736,
        "name": "COSMOS 2251 DEB",
        "group": "cosmos-2251-debris",
        "lat": -17.264026621264666,
        "lon": 50.4300322748223,
        "alt_km": 442.68571806984255,
        "timestamp": "2025-12-03T20:47:58.620807+00:00",
        "meta_object_name": "COSMOS 2251 DEB",
        "meta_object_id": "1993-036ZE",
        "meta_epoch": "2025-12-03T11:31:02.741376",
        "meta_mean_motion": 15.39011018,
        "meta_eccentricity": 0.0015195,
        "meta_inclination": 74.005,
        "meta_ra_of_asc_node": 56.3805,
        "meta_arg_of_pericenter": 354.5082,
        "meta_mean_anomaly": 5.5955,
        "meta_ephemeris_type": 0,
        "meta_classification_type": "U",
        "meta_norad_cat_id": 34736,
        "meta_element_set_no": 999,
        "meta_rev_at_epoch": 88305,
        "meta_bstar": 0.0095149,
        "meta_mean_motion_dot": 0.0038811,
        "meta_mean_motion_ddot": 0,
        "tle_line1": "1 34736U 93036ZE  25337.47989284  .00388110  00000+0  95149-2 0  9995",
        "tle_line2": "2 34736  74.0050  56.3805 0015195 354.5082   5.5955 15.39011018883058"
      },
      "geometry": {
        "type": "Point",
        "coordinates": [
          50.4300322748223,
          -17.264026621264666
        ]
      }
    }
  ]
}